{"type": "FeatureCollection", "features": [{"type": "Feature", "properties": {"name": "Mahajan Field Firing Ranges", "name_hi": "महाजन फील्ड फायरिंग रेंज", "osm_way_id": "412765540", "source": "https://www.openstreetmap.org/way/412765540", "license": "ODbL, (c) OpenStreetMap contributors"}, "geometry": {"type": "Polygon", "coordinates": [[[73.678473, 29.0177968], [73.6774212, 29.0170083], [73.6773761, 29.0168375], [73.6728381, 29.0156418], [73.6696225, 29.0157206], [73.6659411, 29.0153264], [73.6627705, 29.0176391], [73.6571807, 29.0171135], [73.6535894, 29.0169689], [73.6539801, 29.0195838], [73.6530935, 29.0216073], [73.6466923, 29.0223431], [73.6426352, 29.0238936], [73.6407118, 29.0267316], [73.6415082, 29.0276645], [73.6415834, 29.0282163], [73.6412979, 29.0288864], [73.6392843, 29.0292148], [73.6378268, 29.0288338], [73.6378418, 29.0278747], [73.6358283, 29.0272834], [73.6356179, 29.027809], [73.6341754, 29.0269287], [73.6331386, 29.028571], [73.6321017, 29.030371], [73.6302084, 29.0319082], [73.6291115, 29.0323549], [73.6274285, 29.0328936], [73.6247088, 29.035981], [73.6219439, 29.035127], [73.6163692, 29.033314], [73.6097576, 29.0291754], [73.6073534, 29.0278353], [73.603161, 29.0265214], [73.599735, 29.0246556], [73.5979168, 29.0191633], [73.592706, 29.0154657], [73.5902598, 29.0139082], [73.5905817, 29.0127448], [73.5899165, 29.0113187], [73.5877493, 29.0093858], [73.5860112, 29.0074717], [73.5823419, 29.0049571], [73.5797456, 29.0036059], [73.5775783, 29.0023485], [73.5744455, 29.0012788], [73.5713985, 29.0009034], [73.5694244, 29.0003029], [73.5681584, 28.9996836], [73.5640385, 28.9983323], [73.5613993, 28.9996085], [73.5579231, 29.004563], [73.5559275, 29.0078095], [73.5489753, 29.0114313], [73.5397055, 29.00552], [73.5362509, 28.9985575], [73.5328605, 28.9953857], [73.5253933, 28.9956485], [73.5195997, 28.9932649], [73.5225394, 28.9884038], [73.5235908, 28.9859449], [73.5203293, 28.9843495], [73.5171535, 28.9783992], [73.5168531, 28.9666665], [73.5162738, 28.965465], [73.5171106, 28.9622171], [73.5142138, 28.9613723], [73.5139349, 28.9370567], [73.5135701, 28.9297703], [73.5078624, 28.9258452], [73.5038069, 28.9214128], [73.5016182, 28.9199667], [73.501983, 28.9162854], [73.5018542, 28.9149142], [73.495374, 28.9101809], [73.4902242, 28.90695], [73.4861043, 28.9047523], [73.4845164, 28.9029677], [73.4796026, 28.9006759], [73.4761479, 28.9008074], [73.472822, 28.9017655], [73.4695175, 28.9010329], [73.4690025, 28.9021412], [73.4664061, 28.902066], [73.4663632, 28.8999057], [73.4638956, 28.8998118], [73.4640243, 28.8979332], [73.4614494, 28.8975951], [73.4606126, 28.8986095], [73.4607199, 28.899361], [73.4612563, 28.8998682], [73.4612778, 28.9027799], [73.4603336, 28.903118], [73.4600761, 28.9036252], [73.4593895, 28.9037191], [73.4581878, 28.903381], [73.4558275, 28.90216], [73.4487679, 28.9022915], [73.449476, 28.8897047], [73.4468367, 28.8858721], [73.4404638, 28.882415], [73.4397557, 28.8754066], [73.4473946, 28.8650341], [73.4461716, 28.8638314], [73.44924, 28.857705], [73.4514931, 28.8594528], [73.4524372, 28.8587762], [73.4534242, 28.8587762], [73.4567073, 28.8566526], [73.4543255, 28.8545478], [73.4466222, 28.8512776], [73.4384253, 28.8462594], [73.4225037, 28.8380456], [73.4108951, 28.8366923], [73.4068396, 28.8352825], [73.4031489, 28.8318425], [73.3984926, 28.8300943], [73.3967331, 28.8315418], [73.3953812, 28.8307147], [73.3912185, 28.834211], [73.3911755, 28.8249623], [73.395231, 28.8159384], [73.3984497, 28.8055976], [73.4011963, 28.797343], [73.4001019, 28.7896518], [73.3934426, 28.7809174], [73.3927918, 28.7738501], [73.3943749, 28.7648863], [73.3925547, 28.7637358], [73.3899922, 28.7627737], [73.3879413, 28.7648492], [73.3845061, 28.7647002], [73.3677718, 28.7565822], [73.3583595, 28.7468936], [73.3633263, 28.7452716], [73.3619156, 28.7388005], [73.3582364, 28.7330804], [73.3544588, 28.7316563], [73.3539525, 28.7275123], [73.3540647, 28.7211952], [73.3627061, 28.7121608], [73.3649769, 28.7034627], [73.3649678, 28.6947283], [73.3626479, 28.6891632], [73.3612033, 28.6829808], [73.3602199, 28.6817353], [73.3634209, 28.6766958], [73.3618887, 28.6733404], [73.3506493, 28.6685486], [73.3369806, 28.6615386], [73.3334247, 28.6600326], [73.3270127, 28.6575125], [73.3219284, 28.6558039], [73.3175621, 28.6539032], [73.3122157, 28.6535798], [73.2965611, 28.6538138], [73.2980824, 28.6440013], [73.3035286, 28.6365843], [73.3073493, 28.6090986], [73.3112709, 28.6015936], [73.2988989, 28.5972955], [73.3065099, 28.589954], [73.3165793, 28.5834475], [73.3297834, 28.5747118], [73.3473463, 28.581123], [73.3496603, 28.5832227], [73.3573519, 28.5851745], [73.3638671, 28.586125], [73.3674694, 28.5845921], [73.3714612, 28.5864803], [73.3783731, 28.5894276], [73.3813313, 28.5887039], [73.3866618, 28.5906776], [73.3937313, 28.5936248], [73.3950659, 28.5931643], [73.4002712, 28.59473], [73.4127163, 28.5967501], [73.4181553, 28.5946956], [73.4217961, 28.5975617], [73.4258194, 28.5979312], [73.4296291, 28.5970416], [73.4331383, 28.590941], [73.4366673, 28.5877317], [73.4411977, 28.583283], [73.4451818, 28.5843952], [73.4522608, 28.5765084], [73.4505325, 28.559368], [73.4520306, 28.5509035], [73.45887, 28.5503784], [73.4684959, 28.5558216], [73.4708212, 28.5602421], [73.473056, 28.5614816], [73.4735312, 28.5610367], [73.4848299, 28.5670754], [73.4897991, 28.5711117], [73.4974201, 28.5759415], [73.4985747, 28.5752749], [73.4996548, 28.575306], [73.5006833, 28.5741457], [73.5025476, 28.5749412], [73.5040432, 28.5722717], [73.5074246, 28.5737812], [73.5087896, 28.5745678], [73.5097565, 28.575831], [73.5126279, 28.5794611], [73.5138103, 28.5828174], [73.515246, 28.5849662], [73.5158197, 28.5865611], [73.5167702, 28.5900202], [73.5179235, 28.5912722], [73.5179781, 28.5919001], [73.5172937, 28.5933884], [73.5175978, 28.595345], [73.5167568, 28.6021759], [73.5147526, 28.6070347], [73.5171865, 28.6131463], [73.5344557, 28.6191127], [73.5419709, 28.6195448], [73.5467301, 28.6189917], [73.5482143, 28.6176953], [73.5535518, 28.618646], [73.5563982, 28.6191127], [73.5583038, 28.6161397], [73.5602629, 28.6170558], [73.5608552, 28.6158631], [73.5615302, 28.616036], [73.5635194, 28.6133222], [73.5658394, 28.6145894], [73.5765913, 28.6168382], [73.5866978, 28.6179118], [73.5933068, 28.6200026], [73.5992935, 28.6213023], [73.6051729, 28.6224889], [73.6155799, 28.6273107], [73.6212447, 28.6295708], [73.6195925, 28.6332623], [73.6183265, 28.6327349], [73.617554, 28.6343358], [73.6150863, 28.6367276], [73.6062029, 28.6361626], [73.5963109, 28.6356729], [73.5931351, 28.6354846], [73.5924914, 28.6373302], [73.5911825, 28.6444111], [73.5976198, 28.6485728], [73.6070826, 28.6540336], [73.6127475, 28.6582137], [73.6090997, 28.6678349], [73.6127045, 28.6700188], [73.6131766, 28.6732382], [73.6142066, 28.6738218], [73.6124256, 28.6789989], [73.6143782, 28.6794319], [73.6146572, 28.6825944], [73.616524, 28.6836298], [73.6192062, 28.6853052], [73.6221459, 28.6867546], [73.6262014, 28.689164], [73.6293342, 28.6917428], [73.6322954, 28.6929287], [73.6386254, 28.6968625], [73.6449554, 28.6994411], [73.6470154, 28.699987], [73.6451271, 28.70377], [73.6462643, 28.7046734], [73.6458781, 28.7064425], [73.6464789, 28.7071389], [73.6489036, 28.707647], [73.6490968, 28.7069883], [73.6550191, 28.7089268], [73.6560276, 28.7092467], [73.659375, 28.7101313], [73.6617139, 28.7086821], [73.6606839, 28.7064425], [73.659611, 28.7048804], [73.660641, 28.7025655], [73.6596968, 28.6999681], [73.6601475, 28.6979919], [73.6645892, 28.6966931], [73.6673787, 28.697559], [73.6686876, 28.697559], [73.669782, 28.6958273], [73.6720779, 28.6949239], [73.6757257, 28.6966555], [73.676584, 28.6936439], [73.6808756, 28.6950368], [73.6825278, 28.6961473], [73.6860898, 28.6988012], [73.6852529, 28.7004951], [73.6837938, 28.700514], [73.683429, 28.7012104], [73.6842444, 28.7020573], [73.6846307, 28.7023773], [73.6870983, 28.703243], [73.6886003, 28.7037888], [73.6898449, 28.7048052], [73.6905315, 28.7053133], [73.6909821, 28.7058027], [73.6914327, 28.7058968], [73.6917117, 28.7058591], [73.6919048, 28.705558], [73.6920336, 28.7048616], [73.6920765, 28.7044099], [73.6923983, 28.7041841], [73.695102, 28.7047299], [73.695617, 28.7047299], [73.6963036, 28.7046358], [73.6966255, 28.7042782], [73.6970761, 28.7037512], [73.6973121, 28.7030736], [73.6974194, 28.7008339], [73.6973121, 28.6999493], [73.6973551, 28.6992717], [73.6979773, 28.6985001], [73.6995437, 28.6966931], [73.7014106, 28.6953756], [73.7025693, 28.6954321], [73.7033847, 28.6941521], [73.7042215, 28.6937757], [73.7046507, 28.6933992], [73.706496, 28.690557], [73.7045219, 28.6986695], [73.7052729, 28.7029043], [73.7079337, 28.7062355], [73.708277, 28.709849], [73.7087276, 28.7101501], [73.7079122, 28.7119944], [73.709071, 28.7139704], [73.7094357, 28.7155512], [73.7083628, 28.7166239], [73.7107661, 28.718995], [73.711324, 28.7195971], [73.711324, 28.7200488], [73.7122252, 28.7208956], [73.7126115, 28.7220246], [73.7126115, 28.722608], [73.7152508, 28.7264655], [73.7154653, 28.7277262], [73.7168601, 28.7308121], [73.7168386, 28.7323926], [73.7168386, 28.7337285], [73.7147572, 28.7362874], [73.7130406, 28.7387333], [73.7120965, 28.7388838], [73.7108949, 28.7401444], [73.7102726, 28.7414049], [73.7107876, 28.7422892], [73.7112167, 28.74291], [73.710573, 28.7460707], [73.7095001, 28.7489679], [73.7091782, 28.7506046], [73.7080624, 28.7523353], [73.7074616, 28.7554393], [73.7051657, 28.76144], [73.7074831, 28.7628696], [73.7071183, 28.764506], [73.7055519, 28.7642427], [73.7042215, 28.7663682], [73.7015608, 28.7647694], [73.698664, 28.7676096], [73.6965611, 28.7683244], [73.6947587, 28.7703181], [73.694072, 28.7735344], [73.6982348, 28.7754716], [73.6989858, 28.7732147], [73.7036636, 28.7734215], [73.7056592, 28.7737037], [73.7054017, 28.774851], [73.7057879, 28.7749826], [73.7052515, 28.7762239], [73.7110236, 28.7792332], [73.7142422, 28.7800983], [73.7147143, 28.7785749], [73.7170103, 28.7791579], [73.7194994, 28.780512], [73.7210229, 28.7817345], [73.7210658, 28.7839349], [73.7193492, 28.7857026], [73.7187698, 28.7881286], [73.7191561, 28.7888808], [73.7193921, 28.7896707], [73.7205937, 28.7915136], [73.7210443, 28.7926983], [73.7210872, 28.7933564], [73.7226107, 28.7944659], [73.7213233, 28.7983584], [73.7197569, 28.8019686], [73.7217524, 28.8031156], [73.7240055, 28.8046198], [73.7260225, 28.8068949], [73.7274816, 28.8098657], [73.7312367, 28.810975], [73.7329963, 28.8116706], [73.7367513, 28.8140584], [73.7360003, 28.8171605], [73.7335756, 28.8202249], [73.7332323, 28.8220109], [73.7326315, 28.8252255], [73.7331894, 28.8253195], [73.7321379, 28.8309966], [73.7313226, 28.8322373], [73.7311509, 28.8332524], [73.7307003, 28.8363351], [73.732889, 28.8364855], [73.73261, 28.8377449], [73.7367943, 28.8396621], [73.7423303, 28.8412034], [73.7443044, 28.8412974], [73.7456134, 28.8406207], [73.7466648, 28.8396057], [73.7476304, 28.8388915], [73.749111, 28.8408087], [73.7505486, 28.8410718], [73.751364, 28.8407523], [73.7519863, 28.8400193], [73.7528231, 28.8363915], [73.7547758, 28.8343802], [73.759003, 28.8386095], [73.7581661, 28.8407147], [73.755956, 28.8449813], [73.7540033, 28.8469736], [73.7549689, 28.8495485], [73.7567284, 28.8501312], [73.7552049, 28.8540591], [73.7538317, 28.8594716], [73.7502911, 28.865673], [73.7474373, 28.8682286], [73.7437251, 28.8716486], [73.740485, 28.8740162], [73.7391761, 28.8736967], [73.7379101, 28.8769662], [73.737438, 28.878056], [73.7382534, 28.8834296], [73.7415364, 28.8848575], [73.7449053, 28.8868302], [73.7455919, 28.888446], [73.7496903, 28.8887466], [73.752115, 28.8831853], [73.755441, 28.8832605], [73.7569859, 28.880367], [73.763037, 28.8789391], [73.7641957, 28.8792397], [73.7626722, 28.8805549], [73.7650111, 28.8816259], [73.7693885, 28.8784881], [73.7710622, 28.8790142], [73.7721994, 28.8789015], [73.7746456, 28.8789578], [73.7763193, 28.8794464], [73.777242, 28.8814192], [73.7770059, 28.8825277], [73.7750748, 28.8841811], [73.7735942, 28.8840308], [73.7718561, 28.8842563], [73.7706545, 28.8851581], [73.7684014, 28.8848387], [73.7664702, 28.8841999], [73.7662127, 28.8845569], [73.7649896, 28.884632], [73.7646678, 28.8829223], [73.761492, 28.883486], [73.7617281, 28.8855339], [73.7590673, 28.8858908], [73.757222, 28.8872248], [73.7551835, 28.8895544], [73.7537029, 28.8912641], [73.7526515, 28.8931803], [73.7513211, 28.8960359], [73.7546256, 28.8987598], [73.7562135, 28.8998494], [73.7566426, 28.9010704], [73.7608912, 28.9024981], [73.7655475, 28.9054473], [73.7689164, 28.9074009], [73.7711265, 28.9067246], [73.7719634, 28.9065368], [73.7726071, 28.9049589], [73.7751606, 28.9056351], [73.7748602, 28.9091853], [73.7742808, 28.9155528], [73.7751177, 28.9197788], [73.7751177, 28.9229529], [73.7761262, 28.9231407], [73.7758258, 28.9264462], [73.7743237, 28.927235], [73.7682167, 28.9277604], [73.7647107, 28.9276857], [73.7638738, 28.9323243], [73.7609341, 28.9352164], [73.757737, 28.9340333], [73.7534454, 28.9337328], [73.7520936, 28.9360426], [73.7519219, 28.93839], [73.7580588, 28.9419578], [73.7632301, 28.9458448], [73.7736371, 28.9522476], [73.7796023, 28.9564345], [73.7793448, 28.9591944], [73.7866619, 28.960978], [73.7863615, 28.9644137], [73.7876275, 28.9646953], [73.7910393, 28.9671358], [73.7940862, 28.9704023], [73.7974551, 28.9725987], [73.7956956, 28.978662], [73.7976697, 28.9838802], [73.7975195, 28.986508], [73.7968757, 28.9894736], [73.794966, 28.9915007], [73.7908676, 28.9986514], [73.7859752, 28.997225], [73.7815121, 28.9948602], [73.7756326, 28.9918573], [73.7741735, 28.991313], [73.7714699, 28.990825], [73.768101, 28.9911253], [73.7663415, 28.9911441], [73.7662556, 28.9830731], [73.7625649, 28.9806142], [73.7597111, 28.9794504], [73.7557414, 28.9783241], [73.7557414, 28.9779674], [73.7532308, 28.9763719], [73.7493255, 28.9747575], [73.7456134, 28.9800135], [73.7428024, 28.9837113], [73.7416652, 28.9834485], [73.7401202, 28.9837864], [73.7368801, 28.9856071], [73.7329104, 28.9896613], [73.7319448, 28.9909564], [73.7306145, 28.9912004], [73.7285331, 28.9943535], [73.7331679, 28.9972438], [73.7339619, 28.9970373], [73.735657, 28.9979945], [73.7377169, 29.0002653], [73.7385753, 29.0009222], [73.7402275, 29.0032493], [73.739219, 29.0042064], [73.739219, 29.0097424], [73.7372878, 29.0122945], [73.7367513, 29.0177174], [73.7343266, 29.0173234], [73.7307217, 29.0200441], [73.7309363, 29.0223896], [73.7298634, 29.0241721], [73.7254002, 29.0250914], [73.7239626, 29.0237218], [73.7205937, 29.022671], [73.720465, 29.0214889], [73.7180832, 29.0219205], [73.7152937, 29.0212262], [73.7142637, 29.0207947], [73.713105, 29.0207196], [73.7127617, 29.02117], [73.7099078, 29.0217704], [73.7084058, 29.022596], [73.7004664, 29.0239469], [73.6988142, 29.0251665], [73.6982992, 29.0275306], [73.6983421, 29.0315269], [73.6997798, 29.0332529], [73.6973765, 29.0335531], [73.694115, 29.0340972], [73.6915829, 29.0353917], [73.6906603, 29.0350915], [73.6863473, 29.030495], [73.6823347, 29.0229525], [73.6812189, 29.0204382], [73.6816051, 29.0194812], [73.678473, 29.0177968]]]}}]}